QIANFAN-1               
1 60379U 24140A   25363.57934654  .00000148  00000+0  21096-3 0  9991
2 60379  88.9774 297.5386 0017521 160.1518 200.0318 13.50981505 69622
QIANFAN-2               
1 60380U 24140B   25363.46015766  .00000154  00000+0  22019-3 0  9998
2 60380  88.9760 297.3880 0013676 131.7230 228.5094 13.50985292 69665
QIANFAN-3               
1 60381U 24140C   25363.54238236  .00000154  00000+0  21948-3 0  9997
2 60381  88.9753 297.5109 0014411 143.9514 216.2612 13.50985837 69588
QIANFAN-4               
1 60382U 24140D   25363.51761189  .00000178  00000+0  25744-3 0  9997
2 60382  88.9778 297.4153 0013836 134.1252 226.1040 13.50981543 69704
QIANFAN-5               
1 60383U 24140E   25363.49303657  .00000167  00000+0  23947-3 0  9998
2 60383  88.9753 297.5413 0015324 155.6345 204.5534 13.50983574 69561
QIANFAN-6               
1 60384U 24140F   25363.58768615  .00000169  00000+0  24336-3 0  9993
2 60384  88.9779 297.2823 0013796 139.6096 220.6082 13.50983868 69774
QIANFAN-7               
1 60385U 24140G   25363.49603755  .00001093  00000+0  43741-3 0  9995
2 60385  88.9793 291.7548 0015235 354.5878   5.5149 14.27676274 72784
QIANFAN-8               
1 60386U 24140H   25363.59597893  .00000155  00000+0  22144-3 0  9994
2 60386  88.9781 297.5192 0017159 143.2154 217.0179 13.50981672 69626
